[{"OBJECT_NAME":"STARLINK-32759","OBJECT_ID":"2025-014S","EPOCH":"2026-03-09T07:01:10.009344","MEAN_MOTION":15.27605558,"ECCENTRICITY":0.00036256,"INCLINATION":42.9997,"RA_OF_ASC_NODE":160.3567,"ARG_OF_PERICENTER":294.6034,"MEAN_ANOMALY":65.444,"EPHEMERIS_TYPE":0,"CLASSIFICATION_TYPE":"U","NORAD_CAT_ID":62751,"ELEMENT_SET_NO":999,"REV_AT_EPOCH":6315,"BSTAR":0.0012869334,"MEAN_MOTION_DOT":0.00035353,"MEAN_MOTION_DDOT":0},{"OBJECT_NAME":"AIST-2 (RS43)","OBJECT_ID":"2013-015D","EPOCH":"2026-03-09T22:52:25.813056","MEAN_MOTION":15.25079544,"ECCENTRICITY":0.00239979,"INCLINATION":64.8687,"RA_OF_ASC_NODE":221.5348,"ARG_OF_PERICENTER":248.8384,"MEAN_ANOMALY":111.0181,"EPHEMERIS_TYPE":0,"CLASSIFICATION_TYPE":"U","NORAD_CAT_ID":39133,"ELEMENT_SET_NO":999,"REV_AT_EPOCH":70876,"BSTAR":0.00037899099,"MEAN_MOTION_DOT":9.402e-5,"MEAN_MOTION_DDOT":0}]
